{
  "norad_id": 52760,
  "name": "VIGORIDE-3",
  "history": [
    {
      "epoch": "2026-03-28T20:51:25.010208",
      "apogee_km": 493.16114186615596,
      "perigee_km": 480.18719793993296,
      "latitude_deg": 68.34087198728439,
      "longitude_deg": -100.57221088022925,
      "semi_major_axis_km": 6864.811169903044,
      "eccentricity": 0.00094496,
      "inclination_deg": 97.6463,
      "raan_deg": 225.8294,
      "arg_perigee_deg": 53.0523,
      "mean_anomaly_deg": 307.1579,
      "mean_motion_rev_day": 15.26370165
    },
    {
      "epoch": "2026-03-29T03:09:01.371168",
      "apogee_km": 493.1318259496302,
      "perigee_km": 480.1903086331731,
      "latitude_deg": 10.1772813367154,
      "longitude_deg": -75.3984764800407,
      "semi_major_axis_km": 6864.798067291402,
      "eccentricity": 0.0009426,
      "inclination_deg": 97.6463,
      "raan_deg": 226.0978,
      "arg_perigee_deg": 52.1718,
      "mean_anomaly_deg": 308.0372,
      "mean_motion_rev_day": 15.26374535
    }
  ]
}